start=new Date('2023-02-05T00:00:00.000Z').valueOf();
sats=[{"TLE_LINE2":"2 51799  53.2147  18.8716 0001306  92.8179 267.2962 15.08846589 53435","MEAN_MOTION":"15.08846589","DECAY_DATE":null,"INCLINATION":"53.2147","PERIAPSIS":"538.822","REF_FRAME":"TEME","ARG_OF_PERICENTER":"92.8179","EPOCH":"2023-02-04T08:42:31.291488","OBJECT_NAME":"STARLINK-3637","SEMIMAJOR_AXIS":"6917.860","SITE":"AFWTR","FILE":"3771952","MEAN_ANOMALY":"267.2962","COUNTRY_CODE":"US","MEAN_MOTION_DOT":"0.00002688","ECCENTRICITY":"0.00013060","MEAN_MOTION_DDOT":"0.0000000000000","OBJECT_TYPE":"PAYLOAD","NORAD_CAT_ID":"51799","TLE_LINE1":"1 51799U 22017AH  23035.36286217  .00002688  00000-0  18685-3 0  9996","GP_ID":"224402495","RA_OF_ASC_NODE":"18.8716","APOAPSIS":"540.629","LAUNCH_DATE":"2022-02-25","CLASSIFICATION_TYPE":"U","ELEMENT_SET_NO":"999","EPHEMERIS_TYPE":"0","MEAN_ELEMENT_THEORY":"SGP4","BSTAR":"0.00018685000000","TIME_SYSTEM":"UTC","PERIOD":"95.437","RCS_SIZE":"LARGE","OBJECT_ID":"2022-017AH","REV_AT_EPOCH":"5343","CENTER_NAME":"EARTH"},{"OBJECT_NAME":"STARLINK-3600","SEMIMAJOR_AXIS":"6917.878","SITE":"AFWTR","MEAN_MOTION":"15.08840844","TLE_LINE2":"2 51800  53.2166  18.9480 0001650  89.2162 270.9019 15.08840844 53478","PERIAPSIS":"538.601","DECAY_DATE":null,"INCLINATION":"53.2166","REF_FRAME":"TEME","ARG_OF_PERICENTER":"89.2162","EPOCH":"2023-02-04T08:17:24.726912","ECCENTRICITY":"0.00016500","MEAN_MOTION_DDOT":"0.0000000000000","OBJECT_TYPE":"PAYLOAD","FILE":"3771952","MEAN_ANOMALY":"270.9019","MEAN_MOTION_DOT":"0.00000999","COUNTRY_CODE":"US","MEAN_ELEMENT_THEORY":"SGP4","BSTAR":"0.00008082700000","TIME_SYSTEM":"UTC","NORAD_CAT_ID":"51800","RA_OF_ASC_NODE":"18.9480","TLE_LINE1":"1 51800U 22017AJ  23035.34542508  .00000999  00000-0  80827-4 0  9996","GP_ID":"224403745","LAUNCH_DATE":"2022-02-25","APOAPSIS":"540.884","ELEMENT_SET_NO":"999","EPHEMERIS_TYPE":"0","CLASSIFICATION_TYPE":"U","REV_AT_EPOCH":"5347","CENTER_NAME":"EARTH","PERIOD":"95.438","RCS_SIZE":"LARGE","OBJECT_ID":"2022-017AJ"},{"REV_AT_EPOCH":"5343","CENTER_NAME":"EARTH","PERIOD":"95.437","RCS_SIZE":"LARGE","OBJECT_ID":"2022-017AK","MEAN_ELEMENT_THEORY":"SGP4","BSTAR":"0.00014913000000","TIME_SYSTEM":"UTC","NORAD_CAT_ID":"51801","TLE_LINE1":"1 51801U 22017AK  23035.35918014  .00002087  00000-0  14913-3 0  9999","GP_ID":"224403996","RA_OF_ASC_NODE":"18.8764","APOAPSIS":"540.606","LAUNCH_DATE":"2022-02-25","ELEMENT_SET_NO":"999","CLASSIFICATION_TYPE":"U","EPHEMERIS_TYPE":"0","ECCENTRICITY":"0.00012740","MEAN_MOTION_DDOT":"0.0000000000000","OBJECT_TYPE":"PAYLOAD","FILE":"3771952","MEAN_ANOMALY":"264.1332","MEAN_MOTION_DOT":"0.00002087","COUNTRY_CODE":"US","OBJECT_NAME":"STARLINK-3592","SEMIMAJOR_AXIS":"6917.860","SITE":"AFWTR","TLE_LINE2":"2 51801  53.2180  18.8764 0001274  95.9806 264.1332 15.08846652 53432","MEAN_MOTION":"15.08846652","DECAY_DATE":null,"ARG_OF_PERICENTER":"95.9806","PERIAPSIS":"538.844","REF_FRAME":"TEME","INCLINATION":"53.2180","EPOCH":"2023-02-04T08:37:13.164096"},{"MEAN_MOTION_DDOT":"0.0000000000000","OBJECT_TYPE":"PAYLOAD","ECCENTRICITY":"0.00015030","MEAN_ANOMALY":"308.6772","FILE":"3771980","MEAN_MOTION_DOT":"0.00050579","COUNTRY_CODE":"US","SITE":"AFWTR","SEMIMAJOR_AXIS":"6917.972","OBJECT_NAME":"STARLINK-3557","EPOCH":"2023-02-04T22:00:00.999936","MEAN_MOTION":"15.08810026","TLE_LINE2":"2 51802  53.2165  16.3693 0001503 101.2824 308.6772 15.08810026 53513","ARG_OF_PERICENTER":"101.2824","DECAY_DATE":null,"PERIAPSIS":"538.797","INCLINATION":"53.2165","REF_FRAME":"TEME","REV_AT_EPOCH":"5351","CENTER_NAME":"EARTH","PERIOD":"95.439","OBJECT_ID":"2022-017AL","RCS_SIZE":"LARGE","MEAN_ELEMENT_THEORY":"SGP4","TIME_SYSTEM":"UTC","BSTAR":"0.00317600000000","APOAPSIS":"540.877","LAUNCH_DATE":"2022-02-25","ELEMENT_SET_NO":"999","CLASSIFICATION_TYPE":"U","EPHEMERIS_TYPE":"0","NORAD_CAT_ID":"51802","GP_ID":"224406238","TLE_LINE1":"1 51802U 22017AL  23035.91667824  .00050579  00000-0  31760-2 0  9999","RA_OF_ASC_NODE":"16.3693"},{"DECAY_DATE":null,"ARG_OF_PERICENTER":"94.6586","PERIAPSIS":"538.866","INCLINATION":"53.2174","REF_FRAME":"TEME","MEAN_MOTION":"15.08856897","TLE_LINE2":"2 51803  53.2174  18.9280 0001197  94.6586 265.4543 15.08856897 53425","EPOCH":"2023-02-04T08:21:20.438208","SEMIMAJOR_AXIS":"6917.829","OBJECT_NAME":"STARLINK-3544","SITE":"AFWTR","MEAN_MOTION_DOT":"0.00006230","COUNTRY_CODE":"US","MEAN_ANOMALY":"265.4543","FILE":"3771981","ECCENTRICITY":"0.00011970","OBJECT_TYPE":"PAYLOAD","MEAN_MOTION_DDOT":"0.0000000000000","GP_ID":"224406462","TLE_LINE1":"1 51803U 22017AM  23035.34815322  .00006230  00000-0  40896-3 0  9991","RA_OF_ASC_NODE":"18.9280","NORAD_CAT_ID":"51803","EPHEMERIS_TYPE":"0","ELEMENT_SET_NO":"999","CLASSIFICATION_TYPE":"U","APOAPSIS":"540.522","LAUNCH_DATE":"2022-02-25","TIME_SYSTEM":"UTC","BSTAR":"0.00040896000000","MEAN_ELEMENT_THEORY":"SGP4","OBJECT_ID":"2022-017AM","RCS_SIZE":"LARGE","PERIOD":"95.436","CENTER_NAME":"EARTH","REV_AT_EPOCH":"5342"},{"COUNTRY_CODE":"US","MEAN_MOTION_DOT":"0.00002745","MEAN_ANOMALY":"255.5600","FILE":"3772514","OBJECT_TYPE":"PAYLOAD","MEAN_MOTION_DDOT":"0.0000000000000","ECCENTRICITY":"0.00016020","EPOCH":"2023-02-04T18:12:11.464128","DECAY_DATE":null,"REF_FRAME":"TEME","PERIAPSIS":"538.631","INCLINATION":"53.2142","ARG_OF_PERICENTER":"104.5570","TLE_LINE2":"2 51804  53.2142 357.0940 0001602 104.5570 255.5600 15.08842144 53723","MEAN_MOTION":"15.08842144","SITE":"AFWTR","SEMIMAJOR_AXIS":"6917.874","OBJECT_NAME":"STARLINK-3601","OBJECT_ID":"2022-017AN","RCS_SIZE":"LARGE","PERIOD":"95.437","CENTER_NAME":"EARTH","REV_AT_EPOCH":"5372","ELEMENT_SET_NO":"999","CLASSIFICATION_TYPE":"U","EPHEMERIS_TYPE":"0","LAUNCH_DATE":"2022-02-25","APOAPSIS":"540.847","GP_ID":"224441411","TLE_LINE1":"1 51804U 22017AN  23035.75846602  .00002745  00000-0  19047-3 0  9993","RA_OF_ASC_NODE":"357.0940","NORAD_CAT_ID":"51804","TIME_SYSTEM":"UTC","BSTAR":"0.00019047000000","MEAN_ELEMENT_THEORY":"SGP4"},{"ECCENTRICITY":"0.00015740","OBJECT_TYPE":"PAYLOAD","MEAN_MOTION_DDOT":"0.0000000000000","MEAN_MOTION_DOT":"-0.00043768","COUNTRY_CODE":"US","MEAN_ANOMALY":"252.6305","FILE":"3772514","SEMIMAJOR_AXIS":"6918.327","OBJECT_NAME":"STARLINK-3605","SITE":"AFWTR","DECAY_DATE":null,"PERIAPSIS":"539.103","REF_FRAME":"TEME","INCLINATION":"53.2174","ARG_OF_PERICENTER":"107.4859","MEAN_MOTION":"15.08693986","TLE_LINE2":"2 51805  53.2174 356.5062 0001574 107.4859 252.6305 15.08693986 53838","EPOCH":"2023-02-04T21:17:45.571200","CENTER_NAME":"EARTH","REV_AT_EPOCH":"5383","OBJECT_ID":"2022-017AP","RCS_SIZE":"LARGE","PERIOD":"95.447","TIME_SYSTEM":"UTC","BSTAR":"-0.00275970000000","MEAN_ELEMENT_THEORY":"SGP4","TLE_LINE1":"1 51805U 22017AP  23035.88733300 -.00043768  00000-0 -27597-2 0  9998","RA_OF_ASC_NODE":"356.5062","GP_ID":"224442659","NORAD_CAT_ID":"51805","ELEMENT_SET_NO":"999","CLASSIFICATION_TYPE":"U","EPHEMERIS_TYPE":"0","APOAPSIS":"541.281","LAUNCH_DATE":"2022-02-25"},{"SITE":"AFWTR","SEMIMAJOR_AXIS":"6917.862","OBJECT_NAME":"STARLINK-3581","EPOCH":"2023-02-04T07:19:03.463680","DECAY_DATE":null,"REF_FRAME":"TEME","PERIAPSIS":"539.007","ARG_OF_PERICENTER":"105.3138","INCLINATION":"53.2158","MEAN_MOTION":"15.08846111","TLE_LINE2":"2 51806  53.2158   9.1265 0001041 105.3138 254.7969 15.08846111 53461","OBJECT_TYPE":"PAYLOAD","MEAN_MOTION_DDOT":"0.0000000000000","ECCENTRICITY":"0.00010410","COUNTRY_CODE":"US","MEAN_MOTION_DOT":"0.00002537","MEAN_ANOMALY":"254.7969","FILE":"3771952","TIME_SYSTEM":"UTC","BSTAR":"0.00017741000000","MEAN_ELEMENT_THEORY":"SGP4","EPHEMERIS_TYPE":"0","ELEMENT_SET_NO":"999","CLASSIFICATION_TYPE":"U","APOAPSIS":"540.447","LAUNCH_DATE":"2022-02-25","RA_OF_ASC_NODE":"9.1265","TLE_LINE1":"1 51806U 22017AQ  23035.30490120  .00002537  00000-0  17741-3 0  9994","GP_ID":"224402246","NORAD_CAT_ID":"51806","CENTER_NAME":"EARTH","REV_AT_EPOCH":"5346","OBJECT_ID":"2022-017AQ","RCS_SIZE":"LARGE","PERIOD":"95.437"},{"MEAN_MOTION_DDOT":"0.0000000000000","OBJECT_TYPE":"PAYLOAD","ECCENTRICITY":"0.00012800","FILE":"3772514","MEAN_ANOMALY":"261.2103","MEAN_MOTION_DOT":"-0.00000724","COUNTRY_CODE":"US","SITE":"AFWTR","OBJECT_NAME":"STARLINK-3606","SEMIMAJOR_AXIS":"6917.896","EPOCH":"2023-02-04T18:37:21.974592","MEAN_MOTION":"15.08834774","TLE_LINE2":"2 51807  53.2164   7.0190 0001280  98.9034 261.2103 15.08834774 53689","DECAY_DATE":null,"ARG_OF_PERICENTER":"98.9034","PERIAPSIS":"538.876","REF_FRAME":"TEME","INCLINATION":"53.2164","REV_AT_EPOCH":"5368","CENTER_NAME":"EARTH","PERIOD":"95.438","RCS_SIZE":"LARGE","OBJECT_ID":"2022-017AR","MEAN_ELEMENT_THEORY":"SGP4","BSTAR":"-0.00002741300000","TIME_SYSTEM":"UTC","APOAPSIS":"540.647","LAUNCH_DATE":"2022-02-25","ELEMENT_SET_NO":"999","EPHEMERIS_TYPE":"0","CLASSIFICATION_TYPE":"U","NORAD_CAT_ID":"51807","TLE_LINE1":"1 51807U 22017AR  23035.77594878 -.00000724  00000-0 -27413-4 0  9997","RA_OF_ASC_NODE":"7.0190","GP_ID":"224441661"},{"REV_AT_EPOCH":"5355","CENTER_NAME":"EARTH","PERIOD":"95.438","OBJECT_ID":"2022-017AS","RCS_SIZE":"LARGE","MEAN_ELEMENT_THEORY":"SGP4","TIME_SYSTEM":"UTC","BSTAR":"0.00018461000000","NORAD_CAT_ID":"51808","RA_OF_ASC_NODE":"6.4801","TLE_LINE1":"1 51808U 22017AS  23035.89370612  .00002651  00000-0  18461-3 0  9990","GP_ID":"224441911","APOAPSIS":"541.027","LAUNCH_DATE":"2022-02-25","ELEMENT_SET_NO":"999","CLASSIFICATION_TYPE":"U","EPHEMERIS_TYPE":"0","ECCENTRICITY":"0.00018520","MEAN_MOTION_DDOT":"0.0000000000000","OBJECT_TYPE":"PAYLOAD","MEAN_ANOMALY":"272.2174","FILE":"3772514","COUNTRY_CODE":"US","MEAN_MOTION_DOT":"0.00002651","SEMIMAJOR_AXIS":"6917.881","OBJECT_NAME":"STARLINK-3609","SITE":"AFWTR","TLE_LINE2":"2 51808  53.2163   6.4801 0001852  87.9030 272.2174 15.08839903 53555","MEAN_MOTION":"15.08839903","DECAY_DATE":null,"REF_FRAME":"TEME","PERIAPSIS":"538.464","ARG_OF_PERICENTER":"87.9030","INCLINATION":"53.2163","EPOCH":"2023-02-04T21:26:56.208768"}];
